start=new Date('2023-01-16T00:00:00.000Z').valueOf();
sats=[{"EPHEMERIS_TYPE":"0","CLASSIFICATION_TYPE":"U","TLE_LINE2":"2 47915  53.0561  34.2795 0001677  45.6411 314.4715 15.06385051102967","MEAN_MOTION_DOT":"-0.00000387","ARG_OF_PERICENTER":"45.6411","DECAY_DATE":null,"OBJECT_NAME":"STARLINK-2376","LAUNCH_DATE":"2021-03-14","MEAN_MOTION_DDOT":"0.0000000000000","OBJECT_TYPE":"PAYLOAD","ECCENTRICITY":"0.00016770","ELEMENT_SET_NO":"999","MEAN_MOTION":"15.06385051","PERIOD":"95.593","COUNTRY_CODE":"US","SEMIMAJOR_AXIS":"6925.394","REF_FRAME":"TEME","INCLINATION":"53.0561","PERIAPSIS":"546.098","TIME_SYSTEM":"UTC","GP_ID":"223148362","FILE":"3748322","APOAPSIS":"548.421","EPOCH":"2023-01-15T18:40:47.001792","OBJECT_ID":"2021-021BH","RCS_SIZE":"LARGE","MEAN_ANOMALY":"314.4715","NORAD_CAT_ID":"47915","REV_AT_EPOCH":"10296","TLE_LINE1":"1 47915U 21021BH  23015.77832178 -.00000387  00000-0 -71076-5 0  9992","RA_OF_ASC_NODE":"34.2795","SITE":"AFETR","MEAN_ELEMENT_THEORY":"SGP4","CENTER_NAME":"EARTH","BSTAR":"-0.00000710760000"},{"COUNTRY_CODE":"US","PERIOD":"95.591","SEMIMAJOR_AXIS":"6925.312","REF_FRAME":"TEME","ECCENTRICITY":"0.00017840","MEAN_MOTION_DDOT":"0.0000000000000","OBJECT_TYPE":"PAYLOAD","ELEMENT_SET_NO":"999","MEAN_MOTION":"15.06411870","MEAN_MOTION_DOT":"0.00002510","ARG_OF_PERICENTER":"28.7617","DECAY_DATE":null,"LAUNCH_DATE":"2021-03-14","OBJECT_NAME":"STARLINK-2397","EPHEMERIS_TYPE":"0","CLASSIFICATION_TYPE":"U","TLE_LINE2":"2 47917  53.0572  29.3669 0001784  28.7617 331.3470 15.06411870102993","TLE_LINE1":"1 47917U 21021BK  23015.75847647  .00002510  00000-0  18726-3 0  9998","RA_OF_ASC_NODE":"29.3669","SITE":"AFETR","CENTER_NAME":"EARTH","MEAN_ELEMENT_THEORY":"SGP4","BSTAR":"0.00018726000000","RCS_SIZE":"LARGE","NORAD_CAT_ID":"47917","MEAN_ANOMALY":"331.3470","REV_AT_EPOCH":"10299","FILE":"3748322","OBJECT_ID":"2021-021BK","APOAPSIS":"548.413","EPOCH":"2023-01-15T18:12:12.367008","PERIAPSIS":"545.942","INCLINATION":"53.0572","TIME_SYSTEM":"UTC","GP_ID":"223147362"},{"BSTAR":"0.00059855000000","SITE":"AFETR","TLE_LINE1":"1 47918U 21021BL  23015.76588875  .00008646  00000-0  59855-3 0  9999","RA_OF_ASC_NODE":"29.3450","CENTER_NAME":"EARTH","MEAN_ELEMENT_THEORY":"SGP4","NORAD_CAT_ID":"47918","MEAN_ANOMALY":"280.2752","REV_AT_EPOCH":"10302","RCS_SIZE":"LARGE","APOAPSIS":"548.472","OBJECT_ID":"2021-021BL","EPOCH":"2023-01-15T18:22:52.788000","FILE":"3748322","TIME_SYSTEM":"UTC","GP_ID":"223147614","PERIAPSIS":"545.918","INCLINATION":"53.0514","REF_FRAME":"TEME","COUNTRY_CODE":"US","SEMIMAJOR_AXIS":"6925.330","PERIOD":"95.592","ELEMENT_SET_NO":"999","MEAN_MOTION":"15.06405999","ECCENTRICITY":"0.00018440","MEAN_MOTION_DDOT":"0.0000000000000","OBJECT_TYPE":"PAYLOAD","LAUNCH_DATE":"2021-03-14","OBJECT_NAME":"STARLINK-2398","ARG_OF_PERICENTER":"79.8445","MEAN_MOTION_DOT":"0.00008646","DECAY_DATE":null,"TLE_LINE2":"2 47918  53.0514  29.3450 0001844  79.8445 280.2752 15.06405999103026","EPHEMERIS_TYPE":"0","CLASSIFICATION_TYPE":"U"},{"TLE_LINE2":"2 47919  53.0532  39.4133 0001959  70.9571 289.1630 15.06398101102866","CLASSIFICATION_TYPE":"U","EPHEMERIS_TYPE":"0","LAUNCH_DATE":"2021-03-14","OBJECT_NAME":"STARLINK-2405","DECAY_DATE":null,"MEAN_MOTION_DOT":"0.00001350","ARG_OF_PERICENTER":"70.9571","MEAN_MOTION":"15.06398101","ELEMENT_SET_NO":"999","ECCENTRICITY":"0.00019590","OBJECT_TYPE":"PAYLOAD","MEAN_MOTION_DDOT":"0.0000000000000","REF_FRAME":"TEME","COUNTRY_CODE":"US","SEMIMAJOR_AXIS":"6925.354","PERIOD":"95.592","GP_ID":"223147863","TIME_SYSTEM":"UTC","PERIAPSIS":"545.863","INCLINATION":"53.0532","APOAPSIS":"548.576","OBJECT_ID":"2021-021BM","EPOCH":"2023-01-15T18:00:19.294848","FILE":"3748322","REV_AT_EPOCH":"10286","NORAD_CAT_ID":"47919","MEAN_ANOMALY":"289.1630","RCS_SIZE":"LARGE","BSTAR":"0.00010950000000","CENTER_NAME":"EARTH","MEAN_ELEMENT_THEORY":"SGP4","SITE":"AFETR","TLE_LINE1":"1 47919U 21021BM  23015.75022332  .00001350  00000-0  10950-3 0  9998","RA_OF_ASC_NODE":"39.4133"},{"LAUNCH_DATE":"2021-03-24","OBJECT_NAME":"STARLINK-2087","DECAY_DATE":null,"ARG_OF_PERICENTER":"66.1991","MEAN_MOTION_DOT":"0.00000097","TLE_LINE2":"2 47977  53.0530  83.7835 0002034  66.1991 293.9211 15.06377182101556","CLASSIFICATION_TYPE":"U","EPHEMERIS_TYPE":"0","REF_FRAME":"TEME","COUNTRY_CODE":"US","SEMIMAJOR_AXIS":"6925.418","PERIOD":"95.594","MEAN_MOTION":"15.06377182","ELEMENT_SET_NO":"999","ECCENTRICITY":"0.00020340","OBJECT_TYPE":"PAYLOAD","MEAN_MOTION_DDOT":"0.0000000000000","EPOCH":"2023-01-15T21:24:00.582624","APOAPSIS":"548.692","OBJECT_ID":"2021-024A","FILE":"3748322","GP_ID":"223147118","TIME_SYSTEM":"UTC","PERIAPSIS":"545.875","INCLINATION":"53.0530","BSTAR":"0.00002541200000","CENTER_NAME":"EARTH","MEAN_ELEMENT_THEORY":"SGP4","RA_OF_ASC_NODE":"83.7835","TLE_LINE1":"1 47977U 21024A   23015.89167341  .00000097  00000-0  25412-4 0  9997","SITE":"AFETR","REV_AT_EPOCH":"10155","NORAD_CAT_ID":"47977","MEAN_ANOMALY":"293.9211","RCS_SIZE":"LARGE"},{"EPHEMERIS_TYPE":"0","CLASSIFICATION_TYPE":"U","TLE_LINE2":"2 47978  53.0538  93.6788 0001413  76.7859 283.3288 15.06407460101417","ARG_OF_PERICENTER":"76.7859","MEAN_MOTION_DOT":"0.00017521","DECAY_DATE":null,"OBJECT_NAME":"STARLINK-1647","LAUNCH_DATE":"2021-03-24","MEAN_MOTION_DDOT":"0.0000000000000","OBJECT_TYPE":"PAYLOAD","ECCENTRICITY":"0.00014130","ELEMENT_SET_NO":"999","MEAN_MOTION":"15.06407460","SEMIMAJOR_AXIS":"6925.326","COUNTRY_CODE":"US","PERIOD":"95.592","REF_FRAME":"TEME","INCLINATION":"53.0538","PERIAPSIS":"546.212","TIME_SYSTEM":"UTC","GP_ID":"223147368","FILE":"3748322","OBJECT_ID":"2021-024B","APOAPSIS":"548.169","EPOCH":"2023-01-15T21:54:31.732992","RCS_SIZE":"LARGE","MEAN_ANOMALY":"283.3288","NORAD_CAT_ID":"47978","REV_AT_EPOCH":"10141","TLE_LINE1":"1 47978U 21024B   23015.91286728  .00017521  00000-0  11920-2 0  9999","RA_OF_ASC_NODE":"93.6788","SITE":"AFETR","MEAN_ELEMENT_THEORY":"SGP4","CENTER_NAME":"EARTH","BSTAR":"0.00119200000000"},{"TLE_LINE2":"2 47980  53.0535   9.8933 0002679  66.8325 293.2946 15.06403548102562","CLASSIFICATION_TYPE":"U","EPHEMERIS_TYPE":"0","OBJECT_NAME":"STARLINK-2312","LAUNCH_DATE":"2021-03-24","DECAY_DATE":null,"ARG_OF_PERICENTER":"66.8325","MEAN_MOTION_DOT":"0.00000939","MEAN_MOTION":"15.06403548","ELEMENT_SET_NO":"999","MEAN_MOTION_DDOT":"0.0000000000000","OBJECT_TYPE":"PAYLOAD","ECCENTRICITY":"0.00026790","REF_FRAME":"TEME","PERIOD":"95.592","COUNTRY_CODE":"US","SEMIMAJOR_AXIS":"6925.338","GP_ID":"223147869","TIME_SYSTEM":"UTC","INCLINATION":"53.0535","PERIAPSIS":"545.347","APOAPSIS":"549.058","OBJECT_ID":"2021-024D","EPOCH":"2023-01-15T16:07:32.359584","FILE":"3748322","REV_AT_EPOCH":"10256","MEAN_ANOMALY":"293.2946","NORAD_CAT_ID":"47980","RCS_SIZE":"LARGE","BSTAR":"0.00008196800000","MEAN_ELEMENT_THEORY":"SGP4","CENTER_NAME":"EARTH","TLE_LINE1":"1 47980U 21024D   23015.67190231  .00000939  00000-0  81968-4 0  9994","RA_OF_ASC_NODE":"9.8933","SITE":"AFETR"},{"EPOCH":"2023-01-15T21:38:35.786112","APOAPSIS":"548.286","OBJECT_ID":"2021-024E","FILE":"3748322","GP_ID":"223146619","TIME_SYSTEM":"UTC","PERIAPSIS":"546.134","INCLINATION":"53.0550","BSTAR":"0.00007517200000","CENTER_NAME":"EARTH","MEAN_ELEMENT_THEORY":"SGP4","SITE":"AFETR","TLE_LINE1":"1 47981U 21024E   23015.90180308  .00000838  00000-0  75172-4 0  9993","RA_OF_ASC_NODE":"93.7201","REV_AT_EPOCH":"10141","NORAD_CAT_ID":"47981","MEAN_ANOMALY":"262.4451","RCS_SIZE":"LARGE","LAUNCH_DATE":"2021-03-24","OBJECT_NAME":"STARLINK-2303","DECAY_DATE":null,"MEAN_MOTION_DOT":"0.00000838","ARG_OF_PERICENTER":"97.6714","TLE_LINE2":"2 47981  53.0550  93.7201 0001554  97.6714 262.4451 15.06401139101411","CLASSIFICATION_TYPE":"U","EPHEMERIS_TYPE":"0","REF_FRAME":"TEME","SEMIMAJOR_AXIS":"6925.345","COUNTRY_CODE":"US","PERIOD":"95.592","MEAN_MOTION":"15.06401139","ELEMENT_SET_NO":"999","ECCENTRICITY":"0.00015540","MEAN_MOTION_DDOT":"0.0000000000000","OBJECT_TYPE":"PAYLOAD"},{"PERIOD":"95.592","COUNTRY_CODE":"US","SEMIMAJOR_AXIS":"6925.338","REF_FRAME":"TEME","MEAN_MOTION_DDOT":"0.0000000000000","OBJECT_TYPE":"PAYLOAD","ECCENTRICITY":"0.00019570","ELEMENT_SET_NO":"999","MEAN_MOTION":"15.06403460","ARG_OF_PERICENTER":"53.6972","MEAN_MOTION_DOT":"0.00003640","DECAY_DATE":null,"OBJECT_NAME":"STARLINK-2317","LAUNCH_DATE":"2021-03-24","EPHEMERIS_TYPE":"0","CLASSIFICATION_TYPE":"U","TLE_LINE2":"2 47982  53.0545  24.4198 0001957  53.6972 306.4198 15.06403460102313","TLE_LINE1":"1 47982U 21024F   23015.74976009  .00003640  00000-0  26311-3 0  9991","SITE":"AFETR","RA_OF_ASC_NODE":"24.4198","MEAN_ELEMENT_THEORY":"SGP4","CENTER_NAME":"EARTH","BSTAR":"0.00026311000000","RCS_SIZE":"LARGE","MEAN_ANOMALY":"306.4198","NORAD_CAT_ID":"47982","REV_AT_EPOCH":"10231","FILE":"3748322","APOAPSIS":"548.558","EPOCH":"2023-01-15T17:59:39.271776","OBJECT_ID":"2021-024F","INCLINATION":"53.0545","PERIAPSIS":"545.848","TIME_SYSTEM":"UTC","GP_ID":"223146869"},{"OBJECT_NAME":"STARLINK-2308","LAUNCH_DATE":"2021-03-24","DECAY_DATE":null,"MEAN_MOTION_DOT":"0.00015049","ARG_OF_PERICENTER":"48.6555","TLE_LINE2":"2 47985  53.0526  29.5642 0001751  48.6555 311.4584 15.06404360102234","CLASSIFICATION_TYPE":"U","EPHEMERIS_TYPE":"0","REF_FRAME":"TEME","COUNTRY_CODE":"US","SEMIMAJOR_AXIS":"6925.335","PERIOD":"95.592","MEAN_MOTION":"15.06404360","ELEMENT_SET_NO":"999","OBJECT_TYPE":"PAYLOAD","MEAN_MOTION_DDOT":"0.0000000000000","ECCENTRICITY":"0.00017510","APOAPSIS":"548.413","EPOCH":"2023-01-15T18:06:59.121216","OBJECT_ID":"2021-024J","FILE":"3748322","GP_ID":"223148120","TIME_SYSTEM":"UTC","INCLINATION":"53.0526","PERIAPSIS":"545.988","BSTAR":"0.00102690000000","MEAN_ELEMENT_THEORY":"SGP4","CENTER_NAME":"EARTH","TLE_LINE1":"1 47985U 21024J   23015.75485094  .00015049  00000-0  10269-2 0  9994","SITE":"AFETR","RA_OF_ASC_NODE":"29.5642","REV_AT_EPOCH":"10223","MEAN_ANOMALY":"311.4584","NORAD_CAT_ID":"47985","RCS_SIZE":"LARGE"}];
